UNKNOWN                 
1 84006U          26007.07913149 -.00000007  00000+0  00000+0 0  9993
2 84006  22.4183 172.3680 6155013  69.6141 344.0180  2.16233540 84777
UNKNOWN                 
1 84188U          26010.20055459  .00229778  00000+0  96472-1 0  9991
2 84188  65.1016 233.0643 3661337  15.6061 353.2556  7.80835003 43458
UNKNOWN                 
1 84232U          26010.79382235  .00014053  00000+0  11650-1 0  9993
2 84232  20.3098 257.4112 6554488  94.5950 337.2069  3.18080098105617
UNKNOWN                 
1 84236U          26008.25446343  .00000478  00000+0  37931-2 0  9993
2 84236   9.4181 323.3148 6893720 117.7230 326.7545  2.62563797114676
UNKNOWN                 
1 84292U          25353.43049061  .00002611  00000+0  13865-2 0  9994
2 84292  23.8359 151.0737 4565693 256.1347  50.5562  6.21548976228482
UNKNOWN                 
1 84406U          26008.21880314  .00000785  00000+0  43231-2 0  9999
2 84406 101.7141 157.7019 0042055 340.3466 199.3092 12.67381377 52646
UNKNOWN                 
1 84407U          26009.14913852  .00000061  00000+0  14947-1 0  9995
2 84407  19.4594 314.4099 7203057  76.5870 348.5823  2.05773201 76434
UNKNOWN                 
1 84575U          26006.85856207 -.00000089  00000+0 -14389-2 0  9999
2 84575  18.0862 150.2643 7102979  37.7019 355.0684  2.19884814 66018
UNKNOWN                 
1 84932U          26011.55517656  .00000730  00000+0  58850-2 0  9993
2 84932   2.0284 226.1896 6577764  89.3333 122.6884  3.00013384132671
UNKNOWN                 
1 85004U          26010.67666341  .00001177  00000+0  37336-3 0  9995
2 85004  98.4253 346.2908 0048207  75.7056 100.8563 14.41167127635060
UNKNOWN                 
1 85010U          26008.11585619  .00001085  00000+0  11762-2 0  9998
2 85010  99.2485 234.2206 0024742 184.7805 327.2925 13.75118742607545
UNKNOWN                 
1 85015U          26008.65864973  .00000749  00000+0  15405-3 0  9990
2 85015  74.0482 346.6879 0018326 249.9520 109.9675 14.62331021646545
