CCSDS_OMM_VERS = 2.0
CREATION_DATE  = 
ORIGINATOR     = 

OBJECT_NAME    = UNKNOWN
OBJECT_ID      = 
CENTER_NAME    = EARTH
REF_FRAME      = TEME
TIME_SYSTEM    = UTC
MEAN_ELEMENT_THEORY = SGP/SGP4

EPOCH          = 2026-01-07T01:53:56.960736
MEAN_MOTION    = 2.16233540
ECCENTRICITY   = .6155013
INCLINATION    = 22.4183
RA_OF_ASC_NODE = 172.3680
ARG_OF_PERICENTER = 69.6141
MEAN_ANOMALY   = 344.0180

EPHEMERIS_TYPE = 0
CLASSIFICATION_TYPE = U
NORAD_CAT_ID   = 84006
ELEMENT_SET_NO = 999
REV_AT_EPOCH   = 8477
BSTAR          = 0
MEAN_MOTION_DOT = -.7E-7
MEAN_MOTION_DDOT = 0

CCSDS_OMM_VERS = 2.0
CREATION_DATE  = 
ORIGINATOR     = 

OBJECT_NAME    = UNKNOWN
OBJECT_ID      = 
CENTER_NAME    = EARTH
REF_FRAME      = TEME
TIME_SYSTEM    = UTC
MEAN_ELEMENT_THEORY = SGP/SGP4

EPOCH          = 2026-01-10T04:48:47.916576
MEAN_MOTION    = 7.80835003
ECCENTRICITY   = .3661337
INCLINATION    = 65.1016
RA_OF_ASC_NODE = 233.0643
ARG_OF_PERICENTER = 15.6061
MEAN_ANOMALY   = 353.2556

EPHEMERIS_TYPE = 0
CLASSIFICATION_TYPE = U
NORAD_CAT_ID   = 84188
ELEMENT_SET_NO = 999
REV_AT_EPOCH   = 4345
BSTAR          = .96472E-1
MEAN_MOTION_DOT = .229778E-2
MEAN_MOTION_DDOT = 0

CCSDS_OMM_VERS = 2.0
CREATION_DATE  = 
ORIGINATOR     = 

OBJECT_NAME    = UNKNOWN
OBJECT_ID      = 
CENTER_NAME    = EARTH
REF_FRAME      = TEME
TIME_SYSTEM    = UTC
MEAN_ELEMENT_THEORY = SGP/SGP4

EPOCH          = 2026-01-10T19:03:06.251040
MEAN_MOTION    = 3.18080098
ECCENTRICITY   = .6554488
INCLINATION    = 20.3098
RA_OF_ASC_NODE = 257.4112
ARG_OF_PERICENTER = 94.5950
MEAN_ANOMALY   = 337.2069

EPHEMERIS_TYPE = 0
CLASSIFICATION_TYPE = U
NORAD_CAT_ID   = 84232
ELEMENT_SET_NO = 999
REV_AT_EPOCH   = 10561
BSTAR          = .1165E-1
MEAN_MOTION_DOT = .14053E-3
MEAN_MOTION_DDOT = 0

CCSDS_OMM_VERS = 2.0
CREATION_DATE  = 
ORIGINATOR     = 

OBJECT_NAME    = UNKNOWN
OBJECT_ID      = 
CENTER_NAME    = EARTH
REF_FRAME      = TEME
TIME_SYSTEM    = UTC
MEAN_ELEMENT_THEORY = SGP/SGP4

EPOCH          = 2026-01-08T06:06:25.640352
MEAN_MOTION    = 2.62563797
ECCENTRICITY   = .689372
INCLINATION    = 9.4181
RA_OF_ASC_NODE = 323.3148
ARG_OF_PERICENTER = 117.7230
MEAN_ANOMALY   = 326.7545

EPHEMERIS_TYPE = 0
CLASSIFICATION_TYPE = U
NORAD_CAT_ID   = 84236
ELEMENT_SET_NO = 999
REV_AT_EPOCH   = 11467
BSTAR          = .37931E-2
MEAN_MOTION_DOT = .478E-5
MEAN_MOTION_DDOT = 0

CCSDS_OMM_VERS = 2.0
CREATION_DATE  = 
ORIGINATOR     = 

OBJECT_NAME    = UNKNOWN
OBJECT_ID      = 
CENTER_NAME    = EARTH
REF_FRAME      = TEME
TIME_SYSTEM    = UTC
MEAN_ELEMENT_THEORY = SGP/SGP4

EPOCH          = 2025-12-19T10:19:54.388704
MEAN_MOTION    = 6.21548976
ECCENTRICITY   = .4565693
INCLINATION    = 23.8359
RA_OF_ASC_NODE = 151.0737
ARG_OF_PERICENTER = 256.1347
MEAN_ANOMALY   = 50.5562

EPHEMERIS_TYPE = 0
CLASSIFICATION_TYPE = U
NORAD_CAT_ID   = 84292
ELEMENT_SET_NO = 999
REV_AT_EPOCH   = 22848
BSTAR          = .13865E-2
MEAN_MOTION_DOT = .2611E-4
MEAN_MOTION_DDOT = 0

CCSDS_OMM_VERS = 2.0
CREATION_DATE  = 
ORIGINATOR     = 

OBJECT_NAME    = UNKNOWN
OBJECT_ID      = 
CENTER_NAME    = EARTH
REF_FRAME      = TEME
TIME_SYSTEM    = UTC
MEAN_ELEMENT_THEORY = SGP/SGP4

EPOCH          = 2026-01-08T05:15:04.591296
MEAN_MOTION    = 12.67381377
ECCENTRICITY   = .0042055
INCLINATION    = 101.7141
RA_OF_ASC_NODE = 157.7019
ARG_OF_PERICENTER = 340.3466
MEAN_ANOMALY   = 199.3092

EPHEMERIS_TYPE = 0
CLASSIFICATION_TYPE = U
NORAD_CAT_ID   = 84406
ELEMENT_SET_NO = 999
REV_AT_EPOCH   = 5264
BSTAR          = .43231E-2
MEAN_MOTION_DOT = .785E-5
MEAN_MOTION_DDOT = 0

CCSDS_OMM_VERS = 2.0
CREATION_DATE  = 
ORIGINATOR     = 

OBJECT_NAME    = UNKNOWN
OBJECT_ID      = 
CENTER_NAME    = EARTH
REF_FRAME      = TEME
TIME_SYSTEM    = UTC
MEAN_ELEMENT_THEORY = SGP/SGP4

EPOCH          = 2026-01-09T03:34:45.568128
MEAN_MOTION    = 2.05773201
ECCENTRICITY   = .7203057
INCLINATION    = 19.4594
RA_OF_ASC_NODE = 314.4099
ARG_OF_PERICENTER = 76.5870
MEAN_ANOMALY   = 348.5823

EPHEMERIS_TYPE = 0
CLASSIFICATION_TYPE = U
NORAD_CAT_ID   = 84407
ELEMENT_SET_NO = 999
REV_AT_EPOCH   = 7643
BSTAR          = .14947E-1
MEAN_MOTION_DOT = .61E-6
MEAN_MOTION_DDOT = 0

CCSDS_OMM_VERS = 2.0
CREATION_DATE  = 
ORIGINATOR     = 

OBJECT_NAME    = UNKNOWN
OBJECT_ID      = 
CENTER_NAME    = EARTH
REF_FRAME      = TEME
TIME_SYSTEM    = UTC
MEAN_ELEMENT_THEORY = SGP/SGP4

EPOCH          = 2026-01-06T20:36:19.762848
MEAN_MOTION    = 2.19884814
ECCENTRICITY   = .7102979
INCLINATION    = 18.0862
RA_OF_ASC_NODE = 150.2643
ARG_OF_PERICENTER = 37.7019
MEAN_ANOMALY   = 355.0684

EPHEMERIS_TYPE = 0
CLASSIFICATION_TYPE = U
NORAD_CAT_ID   = 84575
ELEMENT_SET_NO = 999
REV_AT_EPOCH   = 6601
BSTAR          = -.14389E-2
MEAN_MOTION_DOT = -.89E-6
MEAN_MOTION_DDOT = 0

CCSDS_OMM_VERS = 2.0
CREATION_DATE  = 
ORIGINATOR     = 

OBJECT_NAME    = UNKNOWN
OBJECT_ID      = 
CENTER_NAME    = EARTH
REF_FRAME      = TEME
TIME_SYSTEM    = UTC
MEAN_ELEMENT_THEORY = SGP/SGP4

EPOCH          = 2026-01-11T13:19:27.254784
MEAN_MOTION    = 3.00013384
ECCENTRICITY   = .6577764
INCLINATION    = 2.0284
RA_OF_ASC_NODE = 226.1896
ARG_OF_PERICENTER = 89.3333
MEAN_ANOMALY   = 122.6884

EPHEMERIS_TYPE = 0
CLASSIFICATION_TYPE = U
NORAD_CAT_ID   = 84932
ELEMENT_SET_NO = 999
REV_AT_EPOCH   = 13267
BSTAR          = .5885E-2
MEAN_MOTION_DOT = .73E-5
MEAN_MOTION_DDOT = 0

CCSDS_OMM_VERS = 2.0
CREATION_DATE  = 
ORIGINATOR     = 

OBJECT_NAME    = UNKNOWN
OBJECT_ID      = 
CENTER_NAME    = EARTH
REF_FRAME      = TEME
TIME_SYSTEM    = UTC
MEAN_ELEMENT_THEORY = SGP/SGP4

EPOCH          = 2026-01-10T16:14:23.718624
MEAN_MOTION    = 14.41167127
ECCENTRICITY   = .0048207
INCLINATION    = 98.4253
RA_OF_ASC_NODE = 346.2908
ARG_OF_PERICENTER = 75.7056
MEAN_ANOMALY   = 100.8563

EPHEMERIS_TYPE = 0
CLASSIFICATION_TYPE = U
NORAD_CAT_ID   = 85004
ELEMENT_SET_NO = 999
REV_AT_EPOCH   = 63506
BSTAR          = .37336E-3
MEAN_MOTION_DOT = .1177E-4
MEAN_MOTION_DDOT = 0

CCSDS_OMM_VERS = 2.0
CREATION_DATE  = 
ORIGINATOR     = 

OBJECT_NAME    = UNKNOWN
OBJECT_ID      = 
CENTER_NAME    = EARTH
REF_FRAME      = TEME
TIME_SYSTEM    = UTC
MEAN_ELEMENT_THEORY = SGP/SGP4

EPOCH          = 2026-01-08T02:46:49.974816
MEAN_MOTION    = 13.75118742
ECCENTRICITY   = .0024742
INCLINATION    = 99.2485
RA_OF_ASC_NODE = 234.2206
ARG_OF_PERICENTER = 184.7805
MEAN_ANOMALY   = 327.2925

EPHEMERIS_TYPE = 0
CLASSIFICATION_TYPE = U
NORAD_CAT_ID   = 85010
ELEMENT_SET_NO = 999
REV_AT_EPOCH   = 60754
BSTAR          = .11762E-2
MEAN_MOTION_DOT = .1085E-4
MEAN_MOTION_DDOT = 0

CCSDS_OMM_VERS = 2.0
CREATION_DATE  = 
ORIGINATOR     = 

OBJECT_NAME    = UNKNOWN
OBJECT_ID      = 
CENTER_NAME    = EARTH
REF_FRAME      = TEME
TIME_SYSTEM    = UTC
MEAN_ELEMENT_THEORY = SGP/SGP4

EPOCH          = 2026-01-08T15:48:27.336672
MEAN_MOTION    = 14.62331021
ECCENTRICITY   = .0018326
INCLINATION    = 74.0482
RA_OF_ASC_NODE = 346.6879
ARG_OF_PERICENTER = 249.9520
MEAN_ANOMALY   = 109.9675

EPHEMERIS_TYPE = 0
CLASSIFICATION_TYPE = U
NORAD_CAT_ID   = 85015
ELEMENT_SET_NO = 999
REV_AT_EPOCH   = 64654
BSTAR          = .15405E-3
MEAN_MOTION_DOT = .749E-5
MEAN_MOTION_DDOT = 0

